{
    "links": {
        "self": "http://www.neowsapp.com/rest/v1/neo/3785776?api_key=iIulBulltgU6a56xZRHN4H3l9WmuAYTsLGpBGhQ2"
    },
    "id": "3785776",
    "neo_reference_id": "3785776",
    "name": "(2017 TS4)",
    "designation": "2017 TS4",
    "nasa_jpl_url": "http://ssd.jpl.nasa.gov/sbdb.cgi?sstr=3785776",
    "absolute_magnitude_h": 24.0,
    "estimated_diameter": {
        "kilometers": {
            "estimated_diameter_min": 0.0421264611,
            "estimated_diameter_max": 0.0941976306
        },
        "meters": {
            "estimated_diameter_min": 42.1264610556,
            "estimated_diameter_max": 94.1976305719
        },
        "miles": {
            "estimated_diameter_min": 0.0261761612,
            "estimated_diameter_max": 0.0585316759
        },
        "feet": {
            "estimated_diameter_min": 138.2101784897,
            "estimated_diameter_max": 309.0473542854
        }
    },
    "is_potentially_hazardous_asteroid": false,
    "close_approach_data": [
        {
            "close_approach_date": "2017-10-17",
            "close_approach_date_full": "2017-Oct-17 12:52",
            "epoch_date_close_approach": 1508244720000,
            "relative_velocity": {
                "kilometers_per_second": "13.9850675102",
                "kilometers_per_hour": "50346.2430368183",
                "miles_per_hour": "31283.1975136274"
            },
            "miss_distance": {
                "astronomical": "0.1552935263",
                "lunar": "60.4091817307",
                "kilometers": "23231580.759268981",
                "miles": "14435434.9037986978"
            },
            "orbiting_body": "Earth"
        },
        {
            "close_approach_date": "2018-02-19",
            "close_approach_date_full": "2018-Feb-19 06:02",
            "epoch_date_close_approach": 1519020120000,
            "relative_velocity": {
                "kilometers_per_second": "11.3677917829",
                "kilometers_per_hour": "40924.0504184454",
                "miles_per_hour": "25428.6134391724"
            },
            "miss_distance": {
                "astronomical": "0.4073921897",
                "lunar": "158.4755617933",
                "kilometers": "60945003.833755939",
                "miles": "37869469.3516683982"
            },
            "orbiting_body": "Earth"
        }
    ],
    "orbital_data": {
        "orbit_id": "1",
        "orbit_determination_date": "2017-10-15 09:12:07",
        "first_observation_date": "2017-10-12",
        "last_observation_date": "2017-10-14",
        "data_arc_in_days": 2,
        "observations_used": 21,
        "orbit_uncertainty": "9",
        "minimum_orbit_intersection": ".155276",
        "jupiter_tisserand_invariant": "4.168",
        "epoch_osculation": "2458039.5",
        "eccentricity": ".3753992255930305",
        "semi_major_axis": "1.61684145597434",
        "inclination": "23.265981140",
        "ascending_node_longitude": "13.60021994397775",
        "orbital_period": "750.9302177526029",
        "perihelion_distance": "1.009880425494865",
        "perihelion_argument": "63.32133633712254",
        "aphelion_distance": "2.223802486453816",
        "perihelion_time": "2458093.224226168596",
        "mean_anomaly": "334.2443159651002",
        "mean_motion": ".4794053981173035",
        "equinox": "J2000",
        "orbit_class": {
            "orbit_class_type": "APO",
            "orbit_class_description": "Near-Earth asteroid orbits which cross the Earth’s orbit similar to that of 1862 Apollo",
            "orbit_class_range": "a (semi-major axis) > 1.0 AU; q (perihelion) < 1.017 AU"
        }
    },
    "is_sentry_object": false
}